[{"OBJECT_NAME":"QIANFAN-35","OBJECT_ID":"2024-185S","EPOCH":"2026-03-03T23:30:22.900608","MEAN_MOTION":14.28115386,"ECCENTRICITY":0.00076447,"INCLINATION":88.9743,"RA_OF_ASC_NODE":67.3246,"ARG_OF_PERICENTER":36.4705,"MEAN_ANOMALY":323.7009,"EPHEMERIS_TYPE":0,"CLASSIFICATION_TYPE":"U","NORAD_CAT_ID":61568,"ELEMENT_SET_NO":999,"REV_AT_EPOCH":8177,"BSTAR":0.00045351675,"MEAN_MOTION_DOT":1.142e-5,"MEAN_MOTION_DDOT":0},{"OBJECT_NAME":"QIANFAN-36","OBJECT_ID":"2024-185T","EPOCH":"2026-03-03T22:26:15.554400","MEAN_MOTION":13.55613352,"ECCENTRICITY":0.00068622,"INCLINATION":88.9716,"RA_OF_ASC_NODE":72.571,"ARG_OF_PERICENTER":150.5467,"MEAN_ANOMALY":209.6075,"EPHEMERIS_TYPE":0,"CLASSIFICATION_TYPE":"U","NORAD_CAT_ID":61569,"ELEMENT_SET_NO":999,"REV_AT_EPOCH":7892,"BSTAR":0.00018720736,"MEAN_MOTION_DOT":1.42e-6,"MEAN_MOTION_DDOT":0},{"OBJECT_NAME":"QIANFAN-37","OBJECT_ID":"2024-232B","EPOCH":"2026-03-03T22:39:54.595296","MEAN_MOTION":13.51005101,"ECCENTRICITY":0.00016571,"INCLINATION":89.0048,"RA_OF_ASC_NODE":33.1261,"ARG_OF_PERICENTER":96.7785,"MEAN_ANOMALY":263.3555,"EPHEMERIS_TYPE":0,"CLASSIFICATION_TYPE":"U","NORAD_CAT_ID":62238,"ELEMENT_SET_NO":999,"REV_AT_EPOCH":11013,"BSTAR":0.00012163523,"MEAN_MOTION_DOT":9.1e-7,"MEAN_MOTION_DDOT":0},{"OBJECT_NAME":"QIANFAN-38","OBJECT_ID":"2024-232C","EPOCH":"2026-03-03T21:28:44.225184","MEAN_MOTION":13.51003647,"ECCENTRICITY":0.00135712,"INCLINATION":89.0055,"RA_OF_ASC_NODE":33.0524,"ARG_OF_PERICENTER":328.5962,"MEAN_ANOMALY":31.4377,"EPHEMERIS_TYPE":0,"CLASSIFICATION_TYPE":"U","NORAD_CAT_ID":62239,"ELEMENT_SET_NO":999,"REV_AT_EPOCH":11018,"BSTAR":9.5541497e-5,"MEAN_MOTION_DOT":7.4e-7,"MEAN_MOTION_DDOT":0},{"OBJECT_NAME":"QIANFAN-39","OBJECT_ID":"2024-232D","EPOCH":"2026-03-03T22:12:55.715040","MEAN_MOTION":14.25434885,"ECCENTRICITY":0.00163393,"INCLINATION":89.0053,"RA_OF_ASC_NODE":28.0205,"ARG_OF_PERICENTER":164.3897,"MEAN_ANOMALY":195.7803,"EPHEMERIS_TYPE":0,"CLASSIFICATION_TYPE":"U","NORAD_CAT_ID":62240,"ELEMENT_SET_NO":999,"REV_AT_EPOCH":11295,"BSTAR":0.00020777985,"MEAN_MOTION_DOT":5.05e-6,"MEAN_MOTION_DDOT":0},{"OBJECT_NAME":"QIANFAN-40","OBJECT_ID":"2024-232E","EPOCH":"2026-03-03T22:16:08.040576","MEAN_MOTION":13.51002881,"ECCENTRICITY":0.0012901,"INCLINATION":89.0083,"RA_OF_ASC_NODE":32.6564,"ARG_OF_PERICENTER":337.5335,"MEAN_ANOMALY":22.525,"EPHEMERIS_TYPE":0,"CLASSIFICATION_TYPE":"U","NORAD_CAT_ID":62241,"ELEMENT_SET_NO":999,"REV_AT_EPOCH":11055,"BSTAR":0.00011257597,"MEAN_MOTION_DOT":8.5e-7,"MEAN_MOTION_DDOT":0},{"OBJECT_NAME":"QIANFAN-41","OBJECT_ID":"2024-232F","EPOCH":"2026-03-03T22:28:02.832960","MEAN_MOTION":13.51004593,"ECCENTRICITY":0.0012862,"INCLINATION":89.0053,"RA_OF_ASC_NODE":32.9984,"ARG_OF_PERICENTER":324.5789,"MEAN_ANOMALY":35.4507,"EPHEMERIS_TYPE":0,"CLASSIFICATION_TYPE":"U","NORAD_CAT_ID":62242,"ELEMENT_SET_NO":999,"REV_AT_EPOCH":11021,"BSTAR":0.00013252935,"MEAN_MOTION_DOT":9.7e-7,"MEAN_MOTION_DDOT":0},{"OBJECT_NAME":"QIANFAN-42","OBJECT_ID":"2024-232G","EPOCH":"2026-03-03T23:24:26.983584","MEAN_MOTION":14.24528902,"ECCENTRICITY":0.00149697,"INCLINATION":89.0052,"RA_OF_ASC_NODE":28.0742,"ARG_OF_PERICENTER":169.7158,"MEAN_ANOMALY":190.4344,"EPHEMERIS_TYPE":0,"CLASSIFICATION_TYPE":"U","NORAD_CAT_ID":62243,"ELEMENT_SET_NO":999,"REV_AT_EPOCH":11293,"BSTAR":0.00019839213,"MEAN_MOTION_DOT":4.75e-6,"MEAN_MOTION_DDOT":0},{"OBJECT_NAME":"QIANFAN-43","OBJECT_ID":"2024-232H","EPOCH":"2026-03-03T22:22:03.749376","MEAN_MOTION":13.51004571,"ECCENTRICITY":0.00145494,"INCLINATION":89.0057,"RA_OF_ASC_NODE":33.0678,"ARG_OF_PERICENTER":329.3455,"MEAN_ANOMALY":30.6845,"EPHEMERIS_TYPE":0,"CLASSIFICATION_TYPE":"U","NORAD_CAT_ID":62244,"ELEMENT_SET_NO":999,"REV_AT_EPOCH":7882,"BSTAR":9.920466e-5,"MEAN_MOTION_DOT":7.6e-7,"MEAN_MOTION_DDOT":0},{"OBJECT_NAME":"QIANFAN-44","OBJECT_ID":"2024-232J","EPOCH":"2026-03-03T22:04:17.783328","MEAN_MOTION":13.51002526,"ECCENTRICITY":0.00126859,"INCLINATION":89.0056,"RA_OF_ASC_NODE":32.8784,"ARG_OF_PERICENTER":327.2608,"MEAN_ANOMALY":32.7756,"EPHEMERIS_TYPE":0,"CLASSIFICATION_TYPE":"U","NORAD_CAT_ID":62245,"ELEMENT_SET_NO":999,"REV_AT_EPOCH":11029,"BSTAR":9.4155689e-5,"MEAN_MOTION_DOT":7.3e-7,"MEAN_MOTION_DDOT":0},{"OBJECT_NAME":"QIANFAN-45","OBJECT_ID":"2024-232K","EPOCH":"2026-03-03T21:16:55.944768","MEAN_MOTION":13.51000192,"ECCENTRICITY":0.00133332,"INCLINATION":89.0059,"RA_OF_ASC_NODE":33.031,"ARG_OF_PERICENTER":326.5564,"MEAN_ANOMALY":33.4744,"EPHEMERIS_TYPE":0,"CLASSIFICATION_TYPE":"U","NORAD_CAT_ID":62246,"ELEMENT_SET_NO":999,"REV_AT_EPOCH":11021,"BSTAR":8.4240516e-5,"MEAN_MOTION_DOT":6.6e-7,"MEAN_MOTION_DDOT":0},{"OBJECT_NAME":"QIANFAN-46","OBJECT_ID":"2024-232L","EPOCH":"2026-03-03T21:52:25.637376","MEAN_MOTION":13.51003095,"ECCENTRICITY":0.00135615,"INCLINATION":89.0055,"RA_OF_ASC_NODE":33.0943,"ARG_OF_PERICENTER":332.328,"MEAN_ANOMALY":27.7148,"EPHEMERIS_TYPE":0,"CLASSIFICATION_TYPE":"U","NORAD_CAT_ID":62247,"ELEMENT_SET_NO":999,"REV_AT_EPOCH":11017,"BSTAR":9.6751688e-5,"MEAN_MOTION_DOT":7.4e-7,"MEAN_MOTION_DDOT":0},{"OBJECT_NAME":"QIANFAN-47","OBJECT_ID":"2024-232M","EPOCH":"2026-03-03T21:58:20.879616","MEAN_MOTION":13.5100305,"ECCENTRICITY":0.00139658,"INCLINATION":89.0051,"RA_OF_ASC_NODE":33.0236,"ARG_OF_PERICENTER":331.1534,"MEAN_ANOMALY":28.8843,"EPHEMERIS_TYPE":0,"CLASSIFICATION_TYPE":"U","NORAD_CAT_ID":62248,"ELEMENT_SET_NO":999,"REV_AT_EPOCH":11020,"BSTAR":0.00010182786,"MEAN_MOTION_DOT":7.8e-7,"MEAN_MOTION_DDOT":0},{"OBJECT_NAME":"QIANFAN-48","OBJECT_ID":"2024-232N","EPOCH":"2026-03-03T22:51:41.148576","MEAN_MOTION":13.51003222,"ECCENTRICITY":0.00162944,"INCLINATION":89.0055,"RA_OF_ASC_NODE":33.0249,"ARG_OF_PERICENTER":332.748,"MEAN_ANOMALY":27.2815,"EPHEMERIS_TYPE":0,"CLASSIFICATION_TYPE":"U","NORAD_CAT_ID":62249,"ELEMENT_SET_NO":999,"REV_AT_EPOCH":11021,"BSTAR":0.00010449917,"MEAN_MOTION_DOT":7.9e-7,"MEAN_MOTION_DDOT":0},{"OBJECT_NAME":"QIANFAN-49","OBJECT_ID":"2024-232P","EPOCH":"2026-03-03T22:33:54.852480","MEAN_MOTION":13.5100233,"ECCENTRICITY":0.00132021,"INCLINATION":89.0054,"RA_OF_ASC_NODE":33.0381,"ARG_OF_PERICENTER":328.4934,"MEAN_ANOMALY":31.5425,"EPHEMERIS_TYPE":0,"CLASSIFICATION_TYPE":"U","NORAD_CAT_ID":62250,"ELEMENT_SET_NO":999,"REV_AT_EPOCH":7880,"BSTAR":0.000117824,"MEAN_MOTION_DOT":8.8e-7,"MEAN_MOTION_DDOT":0},{"OBJECT_NAME":"QIANFAN-50","OBJECT_ID":"2024-232Q","EPOCH":"2026-03-03T21:22:47.871840","MEAN_MOTION":13.51003234,"ECCENTRICITY":0.00148995,"INCLINATION":89.006,"RA_OF_ASC_NODE":33.0555,"ARG_OF_PERICENTER":329.2155,"MEAN_ANOMALY":30.812,"EPHEMERIS_TYPE":0,"CLASSIFICATION_TYPE":"U","NORAD_CAT_ID":62251,"ELEMENT_SET_NO":999,"REV_AT_EPOCH":7882,"BSTAR":7.9365297e-5,"MEAN_MOTION_DOT":6.3e-7,"MEAN_MOTION_DDOT":0},{"OBJECT_NAME":"QIANFAN-51","OBJECT_ID":"2024-232R","EPOCH":"2026-03-03T22:45:47.745792","MEAN_MOTION":13.51004115,"ECCENTRICITY":0.00125303,"INCLINATION":89.0054,"RA_OF_ASC_NODE":33.0386,"ARG_OF_PERICENTER":334.3454,"MEAN_ANOMALY":25.7075,"EPHEMERIS_TYPE":0,"CLASSIFICATION_TYPE":"U","NORAD_CAT_ID":62252,"ELEMENT_SET_NO":999,"REV_AT_EPOCH":7882,"BSTAR":0.00012140606,"MEAN_MOTION_DOT":9.0e-7,"MEAN_MOTION_DDOT":0}]
