QIANFAN-35              
1 61568U 24185S   26062.97943172  .00001142  00000+0  45352-3 0  9993
2 61568  88.9743  67.3246 0007644  36.4705 323.7009 14.28115386 81777
QIANFAN-36              
1 61569U 24185T   26062.93490225  .00000142  00000+0  18721-3 0  9995
2 61569  88.9716  72.5710 0006862 150.5467 209.6075 13.55613352 78929
QIANFAN-37              
1 62238U 24232B   26062.94438189  .00000091  00000+0  12164-3 0  9992
2 62238  89.0048  33.1261 0001657  96.7785 263.3555 13.51005101110131
QIANFAN-38              
1 62239U 24232C   26062.89495631  .00000074  00000+0  95541-4 0  9994
2 62239  89.0055  33.0524 0013571 328.5962  31.4377 13.51003647110186
QIANFAN-39              
1 62240U 24232D   26062.92564485  .00000505  00000+0  20778-3 0  9992
2 62240  89.0053  28.0205 0016339 164.3897 195.7803 14.25434885112953
QIANFAN-40              
1 62241U 24232E   26062.92787084  .00000085  00000+0  11258-3 0  9991
2 62241  89.0083  32.6564 0012901 337.5335  22.5250 13.51002881110550
QIANFAN-41              
1 62242U 24232F   26062.93614390  .00000097  00000+0  13253-3 0  9992
2 62242  89.0053  32.9984 0012862 324.5789  35.4507 13.51004593110215
QIANFAN-42              
1 62243U 24232G   26062.97531231  .00000475  00000+0  19839-3 0  9995
2 62243  89.0052  28.0742 0014969 169.7158 190.4344 14.24528902112930
QIANFAN-43              
1 62244U 24232H   26062.93198784  .00000076  00000+0  99205-4 0  9997
2 62244  89.0057  33.0678 0014549 329.3455  30.6845 13.51004571 78828
QIANFAN-44              
1 62245U 24232J   26062.91965027  .00000073  00000+0  94156-4 0  9995
2 62245  89.0056  32.8784 0012685 327.2608  32.7756 13.51002526110299
QIANFAN-45              
1 62246U 24232K   26062.88675862  .00000066  00000+0  84241-4 0  9993
2 62246  89.0059  33.0310 0013333 326.5564  33.4744 13.51000192110219
QIANFAN-46              
1 62247U 24232L   26062.91140784  .00000074  00000+0  96752-4 0  9997
2 62247  89.0055  33.0943 0013561 332.3280  27.7148 13.51003095110175
QIANFAN-47              
1 62248U 24232M   26062.91551944  .00000078  00000+0  10183-3 0  9999
2 62248  89.0051  33.0236 0013965 331.1534  28.8843 13.51003050110203
QIANFAN-48              
1 62249U 24232N   26062.95255959  .00000079  00000+0  10450-3 0  9999
2 62249  89.0055  33.0249 0016294 332.7480  27.2815 13.51003222110211
QIANFAN-49              
1 62250U 24232P   26062.94021820  .00000088  00000+0  11782-3 0  9997
2 62250  89.0054  33.0381 0013202 328.4934  31.5425 13.51002330 78803
QIANFAN-50              
1 62251U 24232Q   26062.89083185  .00000063  00000+0  79365-4 0  9999
2 62251  89.0060  33.0555 0014899 329.2155  30.8120 13.51003234 78821
QIANFAN-51              
1 62252U 24232R   26062.94846928  .00000090  00000+0  12141-3 0  9996
2 62252  89.0054  33.0386 0012530 334.3454  25.7075 13.51004115 78827
